{"type":"FeatureCollection","features":[{"type":"Feature","geometry":{"type":"Polygon","coordinates":[[[-80.195579134399125,43.508628340094539],[-80.195994247776483,43.509907682071493],[-80.196325624127027,43.510635964156791],[-80.196641025455165,43.511212955417278],[-80.196953545216374,43.511674618168982],[-80.197369552256035,43.512144360327021],[-80.197769919354329,43.512482377199348],[-80.199421041022362,43.513703425341951],[-80.203393905316034,43.512699378725316],[-80.203471675340282,43.51242980789187],[-80.203710724412815,43.512125326297003],[-80.204450541267221,43.511374104319863],[-80.204563077553289,43.511284845829557],[-80.204801988257415,43.510989380467528],[-80.205131894249519,43.510361365186768],[-80.205345764116174,43.510092734563706],[-80.205458262097522,43.510003471301616],[-80.205944245074619,43.509736730207308],[-80.205995021005535,43.509638013682427],[-80.206696135225855,43.509003596480539],[-80.208145776148513,43.507888113433324],[-80.208444536072932,43.507746097176074],[-80.208941909392152,43.507551466823621],[-80.209216872560248,43.50733726524286],[-80.209490202470789,43.50724910392006],[-80.210046704083865,43.507261967960048],[-80.210342990266483,43.507309030472122],[-80.210615009255008,43.507319901393601],[-80.211211106920132,43.507143936793362],[-80.211570419165412,43.507101382168457],[-80.211583127989186,43.507074465173908],[-80.211891800277428,43.507121612685175],[-80.212090299160309,43.507077958635129],[-80.212301859844914,43.506980386765711],[-80.212573993465227,43.506982258574276],[-80.212698062691686,43.506956097535294],[-80.212823517193897,43.506821903957409],[-80.212863067230955,43.506633077181],[-80.212852097728259,43.506524961515083],[-80.213039040997742,43.506418173121006],[-80.213227752263833,43.506176357198783],[-80.213414801581905,43.506060600682368],[-80.213675525132572,43.505990351990455],[-80.214146024982739,43.505957578834916],[-80.214296211882925,43.505823556304037],[-80.214607883110659,43.50563659585886],[-80.214992984183553,43.505513174774983],[-80.215190879831667,43.505514546827818],[-80.215313761245213,43.505578425369222],[-80.215361513327167,43.505713802391249],[-80.215521018743189,43.505813952630014],[-80.215743777238131,43.505806480160942],[-80.216179973451133,43.505557356880551],[-80.216328865334575,43.505522341603282],[-80.216526914749295,43.505514699145088],[-80.216921452217576,43.505616451426462],[-80.217478643923883,43.505575243212434],[-80.217602115444194,43.505594109297625],[-80.217663601519931,43.505621536471793],[-80.21784565817164,43.505892904075154],[-80.218152917692279,43.506048080496605],[-80.218523777590832,43.506068628003753],[-80.218858212268202,43.506034890066438],[-80.219142494311583,43.506054838629169],[-80.219339808157343,43.506101212661285],[-80.219512066221114,43.50617441815443],[-80.219634605769556,43.506265290751159],[-80.21973193512261,43.506392010863578],[-80.219891337531408,43.506501146838303],[-80.220175032482359,43.506566126269874],[-80.220459552979079,43.506568061989348],[-80.220644167322561,43.506641350017553],[-80.220779180042271,43.506723312962222],[-80.221001039710004,43.506787866203325],[-80.221247962020243,43.506825558973176],[-80.221336528618195,43.506673090884838],[-80.221510858664786,43.506584236433056],[-80.222082161927474,43.506408025561825],[-80.222281230546443,43.506319340044925],[-80.222692766762975,43.50606102082898],[-80.222806068837002,43.505908722440672],[-80.22279729141728,43.505629537380244],[-80.222909777806294,43.505540256770651],[-80.223034036198456,43.505496069186208],[-80.223171262042229,43.505406958231738],[-80.223271473616776,43.505308597717494],[-80.223359911070446,43.505165145794891],[-80.223386019031764,43.505057258634281],[-80.223498968883064,43.504931959982187],[-80.223635840201382,43.504869875009341],[-80.2237485559437,43.504762584817193],[-80.223750501260668,43.504609519469156],[-80.223814080422216,43.504474889149428],[-80.223926675878673,43.504376615713966],[-80.224025877781727,43.504359261610517],[-80.224321686210018,43.504442318782516],[-80.224594038588606,43.504426145048285],[-80.224755999329915,43.504337202617975],[-80.224857136947605,43.504166805759759],[-80.225106714596023,43.503997427538096],[-80.225169824481384,43.503898812974327],[-80.225282421920355,43.503800514793717],[-80.225542839992116,43.503748259831553],[-80.225727135099717,43.503848564684553],[-80.22607436704088,43.503778864460457],[-80.226210455396924,43.503779796349924],[-80.226468706782114,43.503898610801102],[-80.226604648511511,43.503908530173973],[-80.226865299518167,43.503838261670154],[-80.227051185798899,43.503812501216828],[-80.227161811348964,43.503867259232685],[-80.227321017926897,43.503994417291999],[-80.227444262627259,43.50403125270978],[-80.228001076738678,43.504017002484957],[-80.228346635933576,43.5040823784555],[-80.228592626180216,43.504192083095624],[-80.22861609604405,43.504291286405312],[-80.228664771677501,43.504354640949522],[-80.228763159768036,43.504400323210028],[-80.22909679754423,43.50442959228819],[-80.229567270634931,43.504396736550319],[-80.22964172363568,43.504379232413768],[-80.229791286782998,43.504290193008707],[-80.230188716834704,43.504166816334759],[-80.230433531588616,43.504057739099807],[-80.230487296393818,43.504033774177266],[-80.231051758239758,43.503710111427466],[-80.226005898196206,43.500039548094755],[-80.223312255667508,43.498079802549327],[-80.212902923285924,43.490485582799643],[-80.207637364859522,43.486623932852297],[-80.20747256741717,43.486500164157675],[-80.206490695438717,43.485802285861283],[-80.202896582104955,43.483193472454808],[-80.201969745940801,43.48252820102158],[-80.20201007906816,43.482686534677427],[-80.202082603673901,43.482970923297373],[-80.201930412128377,43.482982518446953],[-80.201564028354127,43.483010422950045],[-80.198681745677618,43.480890477996205],[-80.196866223675812,43.479555051080865],[-80.189116941520282,43.473853667924821],[-80.186572940971487,43.475817594049239],[-80.180827975234436,43.480103292369925],[-80.171166451908903,43.48726738954295],[-80.187821355056997,43.499482562950035],[-80.187935436668752,43.499566195292601],[-80.188622411150533,43.500074776669621],[-80.188997392901427,43.500352396360505],[-80.191650175871331,43.502257531486045],[-80.192498859956856,43.502962196160141],[-80.193126949737831,43.503570084304158],[-80.193500498279363,43.504053013643187],[-80.19395642100676,43.504756143260693],[-80.194304098250626,43.505348163021388],[-80.195579134399125,43.508628340094539]]]},"properties":{"AREA_NAME":"Clairfields","CSDNAME":"Guelph"}},{"type":"Feature","geometry":{"type":"Polygon","coordinates":[[[-80.265022256833646,43.559285721365413],[-80.265095452012204,43.559376232695826],[-80.265354551567611,43.559449930390301],[-80.265637775487349,43.559577801174242],[-80.266082379693117,43.559670711384854],[-80.266316746368261,43.559744253522972],[-80.266409786788444,43.55974864132461],[-80.267648534183991,43.558896630965897],[-80.268279609029747,43.558406759667207],[-80.269831173795154,43.557265363769801],[-80.270591516707711,43.556686863002462],[-80.272322079577435,43.555461730214816],[-80.272396060431518,43.555390651182478],[-80.274719771531551,43.553687833218575],[-80.276226049811683,43.552615957981104],[-80.277710072050809,43.551535809285816],[-80.276206887358072,43.550452559175902],[-80.270286329523131,43.546196672524687],[-80.266119161831938,43.54332243229841],[-80.266023126237855,43.543233274853968],[-80.265460264823943,43.542809236992902],[-80.264646881138418,43.542237283295897],[-80.264533936299301,43.542182320914677],[-80.263948912303078,43.541724726506878],[-80.263683457793306,43.541532910689227],[-80.263059409573117,43.541114320456145],[-80.262658323344255,43.540855508282746],[-80.262337245303144,43.540588855043872],[-80.262063499752358,43.540396583953758],[-80.261111245094412,43.539678468041238],[-80.260695034346767,43.539396537344956],[-80.260134473608758,43.539801384871794],[-80.259316797823587,43.540365448508645],[-80.258921233016267,43.540650509868932],[-80.258567284495101,43.540826403616208],[-80.258975508613716,43.541264694933425],[-80.257617534579907,43.541963808604883],[-80.255674820694949,43.542951321879883],[-80.256305897634192,43.543638914531265],[-80.25435011259259,43.54464365119442],[-80.253296746394255,43.545212328680819],[-80.252934731802014,43.545358673318866],[-80.252553114822604,43.545390125748241],[-80.252167045087447,43.545391018170612],[-80.251473281400223,43.545522833039414],[-80.249191713016018,43.545920586678093],[-80.249382151789192,43.546124502536649],[-80.249080585615104,43.546224472140736],[-80.249011934856838,43.546358591510575],[-80.248532768774695,43.547556773563308],[-80.247880095404,43.547438737251518],[-80.24767002988628,43.547973275263168],[-80.247734199055145,43.548386616838293],[-80.247734640254123,43.548386676467686],[-80.248058325756332,43.548433434171059],[-80.248577867121753,43.548463860805633],[-80.249813922480428,43.548616037886966],[-80.250135088014517,43.548672173543579],[-80.250565849569298,43.54880366335464],[-80.250677734743547,43.548837805849466],[-80.251256043615186,43.549120718130524],[-80.252103165499392,43.549693522862633],[-80.252287046754063,43.549838800647592],[-80.25249349054171,43.550164291304618],[-80.252579121081538,43.550245895997179],[-80.25264105903382,43.550268939218341],[-80.252899526791836,43.550365051790941],[-80.253009924263608,43.550446817101076],[-80.253817581243808,43.551208432666229],[-80.254099769907114,43.551417360344928],[-80.254356496799915,43.551680159851465],[-80.25453918364299,43.551924467662793],[-80.255001944607301,43.552548781526461],[-80.255085828558066,43.552774437994636],[-80.255096402532544,43.552918564747003],[-80.255216763693497,43.553198473033625],[-80.255447097789542,43.553596146339878],[-80.255631806878881,43.553678391207939],[-80.25591562654877,43.553752275792682],[-80.256014440189702,43.553770927223191],[-80.256410607005861,43.553773506405548],[-80.257375755776806,43.553755005627977],[-80.257463163196775,43.553753340324128],[-80.257599217337386,43.553763234376063],[-80.257845286945525,43.553890893192722],[-80.258129406726184,43.554242363106631],[-80.258174535645963,43.554298209911586],[-80.258368201004558,43.554659638839375],[-80.258427228313053,43.554894127610083],[-80.258548159479687,43.555129015126788],[-80.258616684029377,43.555597673926421],[-80.258718520322319,43.555709109929282],[-80.258935938476739,43.555947096022585],[-80.259386367323927,43.556440063384947],[-80.259555940850404,43.55674729285932],[-80.259702410352531,43.556919329680191],[-80.259861580537276,43.557064412603658],[-80.260033584537751,43.557173575184798],[-80.260378574333728,43.557310876470005],[-80.260799068614403,43.557349617230862],[-80.261057936754668,43.557441316221251],[-80.261739066878903,43.557427722704858],[-80.261998402197605,43.557483419399404],[-80.262466960998864,43.557639513118936],[-80.262592420678104,43.557722059579255],[-80.262798619455552,43.557857750535554],[-80.263204629760921,43.558067460208925],[-80.263731819908514,43.558494061617694],[-80.263916565235007,43.558576292381062],[-80.264013952225909,43.558711980121501],[-80.264210815389291,43.558812294055961],[-80.264494390829228,43.558913165538144],[-80.265185609885322,43.559088695878621],[-80.265345450360627,43.559179754015148],[-80.265098398039669,43.559133142647802],[-80.265022256833646,43.559285721365413]]]},"properties":{"AREA_NAME":"Exhibition Park","CSDNAME":"Guelph"}},{"type":"Feature","geometry":{"type":"Polygon","coordinates":[[[-80.25733766807457,43.525823706660503],[-80.258392074598049,43.526288829679487],[-80.258793351356431,43.526396146412189],[-80.259296762484922,43.526530775952764],[-80.260818985112948,43.526727582198177],[-80.261034393379575,43.526755430854429],[-80.261675856643777,43.526817945798378],[-80.263039555732121,43.526915121367182],[-80.263976715306399,43.527016494039422],[-80.264419084731614,43.527091789831218],[-80.266207972358941,43.527665639975112],[-80.266786308115357,43.527957605981861],[-80.267042212981238,43.528086786174875],[-80.267824873105681,43.528575638131059],[-80.268636433138496,43.529147278759147],[-80.271738429805538,43.531332020004882],[-80.271939061375733,43.531469770168989],[-80.27354488836221,43.532592981157514],[-80.274048937024929,43.532420872533329],[-80.274086265996118,43.532403092119786],[-80.274558248297851,43.532262021359713],[-80.274944791471853,43.532130925570002],[-80.275316379457749,43.531996701058318],[-80.289339900192985,43.526592167382937],[-80.289639934646516,43.526473293389628],[-80.292021839135771,43.525547110828619],[-80.295002833638563,43.524392337976998],[-80.296905553310538,43.523658092158449],[-80.297334240900298,43.523492251252499],[-80.292326168516126,43.519268855981892],[-80.291357940275816,43.518452240099485],[-80.290613141252038,43.518280805336111],[-80.289767218725615,43.518119698451116],[-80.289025985247633,43.518103718329236],[-80.28509957994298,43.51557387601887],[-80.282966890060877,43.513954838876117],[-80.282116025259157,43.513367684207907],[-80.281750451036984,43.513089575688021],[-80.281315831465307,43.512878750222235],[-80.279871588634478,43.511801447083243],[-80.279015851964132,43.511279810101705],[-80.278260063045266,43.5108027941899],[-80.277427040653521,43.511411912241023],[-80.277209551716709,43.511452245219516],[-80.275549461839873,43.512689152424862],[-80.27487729582856,43.513256789652004],[-80.272958329590026,43.512466999568943],[-80.271708266928769,43.515630564305503],[-80.269741468440657,43.51655848209348],[-80.269208442086693,43.516815662590496],[-80.269369825433074,43.51727591002922],[-80.268225968419628,43.517977387371673],[-80.268566711436989,43.519059644461116],[-80.267515647441527,43.519390293382486],[-80.267486216607452,43.520451438076535],[-80.26748575529119,43.520467374409762],[-80.265890590639728,43.521043526699337],[-80.264446146845444,43.521565204476289],[-80.264331133993394,43.521606716833368],[-80.26393711590093,43.521969142042913],[-80.263521352761728,43.522218700977945],[-80.263076910323846,43.52264761151968],[-80.262829742286556,43.523225171777419],[-80.262407800476623,43.523962476236797],[-80.261654999957827,43.525143969595923],[-80.261605823568175,43.525231010976746],[-80.261509609811654,43.525401350025149],[-80.261354134778031,43.525676642933078],[-80.261264708884099,43.525611384233905],[-80.261240929360156,43.525593979396227],[-80.26044511022539,43.52501294059045],[-80.254967809092165,43.521083507000256],[-80.252044169062117,43.517845559820735],[-80.250710632916082,43.518765776830868],[-80.250081633117816,43.519283598468654],[-80.252777653358592,43.521250149694055],[-80.253729200103265,43.522376345416731],[-80.25482189357632,43.5239286802382],[-80.255546861132103,43.524630012947881],[-80.256413861003651,43.525316732532936],[-80.25733766807457,43.525823706660503]]]},"properties":{"AREA_NAME":"Parkwood Gardens","CSDNAME":"Guelph"}},{"type":"Feature","geometry":{"type":"Polygon","coordinates":[[[-80.297334240900298,43.523492251252499],[-80.296905553310538,43.523658092158449],[-80.295002833638563,43.524392337976998],[-80.292021839135771,43.525547110828619],[-80.289639934646516,43.526473293389628],[-80.289339900192985,43.526592167382937],[-80.275316379457749,43.531996701058318],[-80.274944791471853,43.532130925570002],[-80.274558248297851,43.532262021359713],[-80.274086265996118,43.532403092119786],[-80.274048937024929,43.532420872533329],[-80.27354488836221,43.532592981157514],[-80.273634652034872,43.532655768782149],[-80.273963708200938,43.532900474649743],[-80.274389139048552,43.533200712439225],[-80.276201907872178,43.5345135895979],[-80.277583407212845,43.535479826627927],[-80.28134198849898,43.538191623523232],[-80.28881941853453,43.543443973100324],[-80.289771445588755,43.542747796973032],[-80.292222666665324,43.540948572477483],[-80.293885907794774,43.539752551349288],[-80.297217618180994,43.537330551276519],[-80.301208609352315,43.534470789016922],[-80.30502319601031,43.531706306391413],[-80.308532804733503,43.529118251503128],[-80.313476582383359,43.525562124102493],[-80.305744875896508,43.520238017720828],[-80.297334240900298,43.523492251252499]]]},"properties":{"AREA_NAME":"West Willow Woods","CSDNAME":"Guelph"}},{"type":"Feature","geometry":{"type":"Polygon","coordinates":[[[-80.197895535030412,43.558372344387834],[-80.197844317548032,43.558782203921282],[-80.197885699510977,43.559008093574612],[-80.197981992583266,43.559178065404609],[-80.198266472091035,43.559456511046548],[-80.202232167943308,43.562358436625402],[-80.203089903774995,43.562915546182097],[-80.206013617407223,43.565008551081156],[-80.209447789335798,43.562449655309393],[-80.210874904677695,43.561409935097039],[-80.215799679092726,43.557842178280673],[-80.216660144311106,43.558453226606012],[-80.21702602885955,43.558750984102943],[-80.217946415135955,43.558433302214993],[-80.21798339765455,43.558294153591341],[-80.217053794653367,43.557562626995249],[-80.218409502561073,43.557085692729196],[-80.219520777710827,43.558195649513728],[-80.220992623822184,43.557153615923333],[-80.222698317854451,43.555729920525529],[-80.228763774473279,43.555494651618609],[-80.22638142102592,43.553717997562515],[-80.224962547274814,43.55272452929848],[-80.223902621271733,43.551937522392642],[-80.221935477351565,43.550554698176434],[-80.220769132674775,43.549721032576684],[-80.220458786586789,43.549496700035142],[-80.220329974120546,43.54940421492271],[-80.218938374622283,43.548404914533243],[-80.214738429451785,43.5453293327922],[-80.20997014090193,43.5419141724458],[-80.209009066539821,43.541201208725262],[-80.207130233579818,43.539906297228413],[-80.203382506112064,43.537153393153609],[-80.198091107181341,43.54129263112555],[-80.197873573726739,43.541462118100938],[-80.197778462201072,43.541536237760148],[-80.19597862909805,43.542938453240019],[-80.195821375104956,43.5430453002325],[-80.194650717570639,43.543840787971398],[-80.195292754316597,43.544384022946574],[-80.195723218497605,43.544631437297404],[-80.196261757184161,43.544736777367866],[-80.196642777627972,43.54493182526533],[-80.196865681992662,43.545183863453886],[-80.197013981760875,43.54551722886427],[-80.197558062536586,43.546093344947082],[-80.197662800582364,43.546140124726229],[-80.198390393411685,43.546700087019389],[-80.19745075468883,43.547426577469949],[-80.196891480000971,43.547877366633699],[-80.19550838596912,43.548770926438152],[-80.19484320679247,43.549188960231902],[-80.191023454693948,43.551969445017541],[-80.18945342208508,43.55312974666581],[-80.192310252089371,43.555134758070857],[-80.193474854540341,43.555993708031416],[-80.194116094415136,43.556366476070458],[-80.194872328547703,43.556736330771088],[-80.195668196690448,43.557000699074493],[-80.198178046626907,43.557712384993863],[-80.197895535030412,43.558372344387834]]]},"properties":{"AREA_NAME":"Non-Residential - B","CSDNAME":"Guelph"}},{"type":"Feature","geometry":{"type":"Polygon","coordinates":[[[-80.260948649233796,43.5784903832228],[-80.261314059928367,43.578765325393412],[-80.262058687507505,43.579345234076868],[-80.262861068379209,43.579931707812193],[-80.263198598980054,43.580160814955768],[-80.264817061734931,43.581347307007718],[-80.265853149980458,43.582094078992775],[-80.267791434502442,43.583507075718202],[-80.273779603454628,43.587862095771079],[-80.274021125805888,43.588032096981941],[-80.27470124830667,43.586885451545811],[-80.275064945043894,43.586501663188308],[-80.275164201471028,43.586250315610684],[-80.275247253632187,43.584691191754345],[-80.275241263800552,43.584585747816561],[-80.275171317406915,43.583672528461385],[-80.275417848605059,43.583218155270735],[-80.274699211658771,43.582760386842629],[-80.274363414300268,43.582263553457267],[-80.274257021611604,43.581597362631108],[-80.274454624344202,43.581133250701662],[-80.274277111536549,43.580012124503376],[-80.274599686304768,43.579300124624609],[-80.274194647868427,43.578497967285394],[-80.274308321299856,43.577892663376375],[-80.274635813021959,43.577581510148342],[-80.275459076638853,43.577065714071217],[-80.2756455676587,43.576400038143866],[-80.275437040542485,43.575926702347253],[-80.275101960722154,43.575462264827351],[-80.275036529053054,43.574459471416141],[-80.274680712487438,43.573901858487886],[-80.274281910187057,43.57358379344052],[-80.273559175112993,43.573125799364554],[-80.273695979724465,43.573013310836423],[-80.273291284038905,43.572826828411841],[-80.273057972183295,43.572663261405431],[-80.273057794130565,43.572663135115583],[-80.272873826259854,43.572527030792557],[-80.272824735208673,43.57249069384693],[-80.272603689487084,43.572336221582333],[-80.272583798113189,43.572306682062134],[-80.272396858501764,43.57202876609373],[-80.272154724726747,43.571568021195191],[-80.272193396947387,43.571442204772119],[-80.272256063710643,43.571379577342285],[-80.272269535959538,43.571289611677841],[-80.272149164261521,43.5710007107173],[-80.272137853048662,43.57091061068509],[-80.272136648265445,43.569983174332819],[-80.272077780737561,43.569730667004677],[-80.271836197040273,43.569224901282482],[-80.27181562356472,43.569194326293413],[-80.272051457824745,43.56902235773434],[-80.273585600294112,43.567903525967395],[-80.27436499905896,43.567335306914359],[-80.275347221774581,43.566617995206826],[-80.276384212691724,43.565850215643948],[-80.277379839145411,43.565068518398846],[-80.277178144785353,43.564940819521865],[-80.27321880340665,43.562016744476146],[-80.272994571461041,43.561879888919655],[-80.271504167786787,43.560812895476531],[-80.270910135549798,43.560379402768724],[-80.269326293869582,43.559218865350367],[-80.269267196572144,43.559186213988092],[-80.268279609029747,43.558406759667207],[-80.267648534183991,43.558896630965897],[-80.266409786788444,43.55974864132461],[-80.266316746368261,43.559744253522972],[-80.266082379693117,43.559670711384854],[-80.265637775487349,43.559577801174242],[-80.265354551567611,43.559449930390301],[-80.265095452012204,43.559376232695826],[-80.265022256833646,43.559285721365413],[-80.265098398039669,43.559133142647802],[-80.265345450360627,43.559179754015148],[-80.265185609885322,43.559088695878621],[-80.264494390829228,43.558913165538144],[-80.264210815389291,43.558812294055961],[-80.264013952225909,43.558711980121501],[-80.263916565235007,43.558576292381062],[-80.263731819908514,43.558494061617694],[-80.263204629760921,43.558067460208925],[-80.262798619455552,43.557857750535554],[-80.262592420678104,43.557722059579255],[-80.262466960998864,43.557639513118936],[-80.261998402197605,43.557483419399404],[-80.261739066878903,43.557427722704858],[-80.261057936754668,43.557441316221251],[-80.260799068614403,43.557349617230862],[-80.260378574333728,43.557310876470005],[-80.260033584537751,43.557173575184798],[-80.259861580537276,43.557064412603658],[-80.259702410352531,43.556919329680191],[-80.259555940850404,43.55674729285932],[-80.259386367323927,43.556440063384947],[-80.258935938476739,43.555947096022585],[-80.258718520322319,43.555709109929282],[-80.258616684029377,43.555597673926421],[-80.258548159479687,43.555129015126788],[-80.258427228313053,43.554894127610083],[-80.258368201004558,43.554659638839375],[-80.258174535645963,43.554298209911586],[-80.258129406726184,43.554242363106631],[-80.257845286945525,43.553890893192722],[-80.257599217337386,43.553763234376063],[-80.257463163196775,43.553753340324128],[-80.257375755776806,43.553755005627977],[-80.256410607005861,43.553773506405548],[-80.256014440189702,43.553770927223191],[-80.25591562654877,43.553752275792682],[-80.255631806878881,43.553678391207939],[-80.255447097789542,43.553596146339878],[-80.255216763693497,43.553198473033625],[-80.255096402532544,43.552918564747003],[-80.255085828558066,43.552774437994636],[-80.255001944607301,43.552548781526461],[-80.25453918364299,43.551924467662793],[-80.254356496799915,43.551680159851465],[-80.254099769907114,43.551417360344928],[-80.253817581243808,43.551208432666229],[-80.253009924263608,43.550446817101076],[-80.252899526791836,43.550365051790941],[-80.25264105903382,43.550268939218341],[-80.252579121081538,43.550245895997179],[-80.25249349054171,43.550164291304618],[-80.252287046754063,43.549838800647592],[-80.252103165499392,43.549693522862633],[-80.251256043615186,43.549120718130524],[-80.250677734743547,43.548837805849466],[-80.250565849569298,43.54880366335464],[-80.250541938086883,43.54889783354561],[-80.250497313719919,43.549224337068672],[-80.250419695867265,43.549474749588398],[-80.250395174146874,43.549731886050992],[-80.250354404730288,43.550276312359486],[-80.250215250328537,43.551035598586516],[-80.250070880410789,43.552396999427778],[-80.249944306251933,43.553073970329308],[-80.249887857728865,43.553398919114954],[-80.249705906239114,43.55475654000859],[-80.249645895196807,43.555478802308208],[-80.249578301698676,43.555888108890329],[-80.249418730039906,43.557026289097521],[-80.249243459346062,43.558449812348236],[-80.249043200706112,43.559839183712199],[-80.248685359890189,43.562269071108105],[-80.248369135019217,43.564531285269005],[-80.248247078091268,43.565258396086314],[-80.24797917719242,43.567158520174495],[-80.24771686956548,43.568915673147039],[-80.247568995818256,43.569668889609517],[-80.247447757234951,43.570692908958954],[-80.247093566992262,43.573102783736026],[-80.246847822109714,43.574633861459816],[-80.248290303075834,43.573620276476063],[-80.249878290644958,43.572433829840634],[-80.25003809278914,43.572326552054186],[-80.251214205020148,43.571495806686762],[-80.251511829133008,43.571719480126013],[-80.254769384780928,43.574043524318995],[-80.255269371988447,43.574407844197331],[-80.256007400815051,43.574929142595444],[-80.259879593312107,43.577759565832274],[-80.261212697666465,43.576782302581123],[-80.26216051902901,43.576100174991133],[-80.262504302968338,43.576318486391493],[-80.263001901822278,43.576503394420442],[-80.263161515542905,43.576571227718851],[-80.263558737912732,43.576835750149087],[-80.262975571997572,43.577279801332899],[-80.262938099925037,43.577363414418706],[-80.26294429564831,43.577435147138743],[-80.262957880725935,43.577447050857849],[-80.263103928520678,43.577574725629283],[-80.263098434144084,43.577612424768503],[-80.2630929181054,43.57765007154353],[-80.263054000395996,43.577739387570567],[-80.262455636354304,43.578143654105425],[-80.262305461188205,43.578158962845173],[-80.262186096351201,43.578148873265697],[-80.261931524265748,43.577967003152352],[-80.261800828460807,43.577937656695624],[-80.261632622661097,43.577991917089285],[-80.260948649233796,43.5784903832228]]]},"properties":{"AREA_NAME":"Waverley","CSDNAME":"Guelph"}},{"type":"Feature","geometry":{"type":"Polygon","coordinates":[[[-80.24175965291181,43.513981386937857],[-80.240948112141751,43.514610173214372],[-80.239546514327927,43.515634640366734],[-80.233810657356273,43.519904688073296],[-80.236705453034546,43.521966942958322],[-80.237887702366137,43.522816385155835],[-80.241598115212483,43.525459158540826],[-80.239593166771115,43.526933857016786],[-80.237934557643001,43.528175019311583],[-80.237483875764994,43.52851224410896],[-80.236397084168843,43.529283618442534],[-80.236325412721115,43.529334479058875],[-80.234590553402512,43.53061960780677],[-80.232499999882762,43.532131006158174],[-80.234257402624237,43.533316348100115],[-80.234860748796891,43.533740481459425],[-80.236265380390179,43.534694011818267],[-80.237285619485732,43.535448665849785],[-80.238337757191573,43.536234445441963],[-80.238556867989587,43.53641478423306],[-80.239110950085163,43.536813450545552],[-80.240344778990021,43.537632516941038],[-80.240420257110003,43.537687223714073],[-80.241048032061016,43.538142229499364],[-80.241709113432961,43.538628274093064],[-80.242766693794024,43.538007652148949],[-80.243799331486258,43.537582308665399],[-80.245082496281839,43.53691546353479],[-80.24550562643627,43.53672917381752],[-80.245942848664896,43.536659889644717],[-80.246051283634955,43.536642719722266],[-80.246151731368215,43.53652633194249],[-80.246563390404148,43.536267911919602],[-80.246737551812245,43.536197028585057],[-80.247678469113055,43.536176220332024],[-80.247753040982346,43.536149699298704],[-80.24784078927587,43.536060235474558],[-80.248138924923893,43.535972147227199],[-80.248861423892151,43.535598734076274],[-80.250716978901806,43.534674460727722],[-80.2509912613925,43.534514185834958],[-80.252610526193209,43.533678380774667],[-80.252823304667373,43.533558350678369],[-80.253819690041936,43.532974948083364],[-80.254405404717986,43.53264562339249],[-80.25551710822721,43.531815457304987],[-80.255566727134607,43.531806786988412],[-80.25569112565357,43.531753577038515],[-80.256040047854199,43.531557745466912],[-80.256302924368654,43.531316341990212],[-80.256678460304073,43.530967611747116],[-80.257820154870771,43.5297054552709],[-80.258057569419577,43.529517892367991],[-80.258445719487227,43.529151259334931],[-80.258782031518976,43.528973351333789],[-80.258981778552041,43.528830563359826],[-80.259220856100555,43.52850795903769],[-80.259396164916865,43.52833803084615],[-80.25947086573531,43.528302488835536],[-80.259907164142604,43.528044179898906],[-80.260195842364254,43.527712899338106],[-80.260360101171457,43.527434830406413],[-80.260474665991566,43.527174456345413],[-80.260818985112948,43.526727582198177],[-80.259296762484922,43.526530775952764],[-80.258793351356431,43.526396146412189],[-80.258392074598049,43.526288829679487],[-80.25733766807457,43.525823706660503],[-80.256413861003651,43.525316732532936],[-80.255546861132103,43.524630012947881],[-80.25482189357632,43.5239286802382],[-80.253729200103265,43.522376345416731],[-80.252777653358592,43.521250149694055],[-80.250081633117816,43.519283598468654],[-80.246448576825628,43.516617931757317],[-80.244623767869399,43.515292876480586],[-80.24357828224683,43.514507641833745],[-80.243054952148654,43.514058293908519],[-80.242468868325162,43.513476698540821],[-80.24175965291181,43.513981386937857]]]},"properties":{"AREA_NAME":"Old University","CSDNAME":"Guelph"}},{"type":"Feature","geometry":{"type":"Polygon","coordinates":[[[-80.231765101421232,43.540797603803099],[-80.231379259791652,43.540966097386814],[-80.231205860483072,43.540973922198262],[-80.230969346932682,43.541080386375512],[-80.230868506811277,43.541223765236381],[-80.230877653746745,43.541475963112241],[-80.230926608816688,43.541521291795569],[-80.230913553717414,43.541575246245252],[-80.23068790979319,43.541798831157429],[-80.23021449163555,43.542038758682182],[-80.230115218602037,43.542056099510305],[-80.229667362588017,43.542233163037729],[-80.229205644417235,43.542527183142418],[-80.228842238481192,43.542875904988939],[-80.228605099779799,43.543027377368603],[-80.227939927450507,43.54374322533625],[-80.227886179124681,43.544076003873641],[-80.227733719552333,43.544381128276648],[-80.227581067063596,43.544704244225542],[-80.227318151632389,43.544936568414172],[-80.227179357230085,43.545142723912782],[-80.226991613170711,43.545303525542792],[-80.226879536666829,43.545356809033983],[-80.22576173932633,43.545646388253928],[-80.225426751838867,43.54570714940543],[-80.224918802569661,43.545739722756387],[-80.224819205590606,43.545784067531002],[-80.224655055887311,43.546035069837252],[-80.224603712073318,43.546178784096512],[-80.224515665283121,43.546286242540802],[-80.22439119128903,43.546339410674086],[-80.22429054745362,43.546464798155029],[-80.224162860438341,43.546770068622251],[-80.223911268388974,43.54708351468355],[-80.223532065117951,43.547693208204883],[-80.223406191403157,43.54785442674666],[-80.223243448263446,43.547997406998505],[-80.222743689249583,43.548354180473069],[-80.222345270660611,43.548531552061746],[-80.221985145183297,43.548619137433327],[-80.221275852326883,43.548902436785809],[-80.220415733567194,43.54936479686755],[-80.220329974120546,43.54940421492271],[-80.220458786586789,43.549496700035142],[-80.220769132674775,43.549721032576684],[-80.221935477351565,43.550554698176434],[-80.223902621271733,43.551937522392642],[-80.224962547274814,43.55272452929848],[-80.22638142102592,43.553717997562515],[-80.228763774473279,43.555494651618609],[-80.229974263632627,43.556337250157888],[-80.230219224351572,43.556256381070561],[-80.231698936971952,43.555753100548756],[-80.232993623148175,43.555194540897382],[-80.234252403876312,43.554536655801513],[-80.235461869741613,43.553860437534041],[-80.235635945823816,43.553752976935911],[-80.235736475160337,43.553682199978908],[-80.236548179701259,43.553129365270301],[-80.23713582469253,43.552674080330583],[-80.238750174975621,43.551298189382607],[-80.240045238198334,43.550253751061092],[-80.242877565376489,43.547940016510061],[-80.242927763993407,43.547886332826991],[-80.243078906854535,43.547737220311554],[-80.243331963633864,43.547496587386682],[-80.243583601562563,43.547253928465487],[-80.243530146690645,43.547233013725325],[-80.243308464782416,43.547141507552126],[-80.243277413089459,43.547089865613906],[-80.243150811651944,43.546879329081783],[-80.242439240274123,43.545379919286717],[-80.242267731615414,43.54523472468653],[-80.242234911703918,43.544892353362826],[-80.242262032591142,43.544703450530363],[-80.242360617585263,43.544594642644689],[-80.242400087319595,43.544551282498539],[-80.242630323857199,43.544032002841291],[-80.242782234464656,43.543689405526564],[-80.24289656220364,43.543456060896126],[-80.243013472775061,43.543015638613419],[-80.243003470314704,43.54282647082767],[-80.243019237507326,43.542696194507727],[-80.243044861474132,43.542484585533828],[-80.243058265781812,43.542403653646147],[-80.243259913463632,43.542116846215507],[-80.243361619590573,43.54190140428932],[-80.243392210990052,43.541433407515356],[-80.243357816378975,43.541217074700448],[-80.243260575582212,43.541072348670141],[-80.243015881178366,43.540845633790752],[-80.242745723410849,43.54067276049917],[-80.242635929785834,43.540545969079552],[-80.242610339364518,43.540532091566128],[-80.241898286850486,43.540144901886642],[-80.241677876892581,43.539954368230347],[-80.241505724547039,43.539863160864371],[-80.241495459984918,43.539845575999877],[-80.240445226851975,43.53921428395212],[-80.240324712501007,43.539288058714966],[-80.240013724224724,43.539412063271584],[-80.239664563774198,43.539616832896023],[-80.239538768509803,43.539778067291394],[-80.239486424631878,43.540002821343634],[-80.239346561939158,43.540299051001476],[-80.239342916501812,43.540587135819614],[-80.239329871594947,43.540641090412286],[-80.239279786537338,43.540685777247987],[-80.239143547292414,43.540693868553831],[-80.239057357448317,43.540657268241816],[-80.238921450218228,43.540638378618674],[-80.238662996056235,43.540519583460991],[-80.238267537554577,43.540471933771698],[-80.238217451860635,43.540516620138526],[-80.237708519021581,43.54063027799554],[-80.237522870338964,43.540629042728881],[-80.237385944983117,43.540691165144942],[-80.237076417268511,43.540698096160533],[-80.236580326597462,43.540775834109738],[-80.235169262367933,43.540775398358299],[-80.235020964997972,43.540756391497681],[-80.234935388065495,43.540724565305005],[-80.234425007901606,43.540785490990736],[-80.233922773146475,43.54071791788148],[-80.233529207527184,43.540583480250859],[-80.233394623372675,43.540402783930617],[-80.233255559151885,43.540393412652165],[-80.233107604426337,43.540347397521877],[-80.2329469457964,43.540328306854221],[-80.232326404386228,43.540459199381971],[-80.231765101421232,43.540797603803099]]]},"properties":{"AREA_NAME":"Two Rivers","CSDNAME":"Guelph"}},{"type":"Feature","geometry":{"type":"Polygon","coordinates":[[[-80.243331963633864,43.547496587386682],[-80.243078906854535,43.547737220311554],[-80.242927763993407,43.547886332826991],[-80.242877565376489,43.547940016510061],[-80.240045238198334,43.550253751061092],[-80.238750174975621,43.551298189382607],[-80.23713582469253,43.552674080330583],[-80.236548179701259,43.553129365270301],[-80.235736475160337,43.553682199978908],[-80.235635945823816,43.553752976935911],[-80.235461869741613,43.553860437534041],[-80.234252403876312,43.554536655801513],[-80.232993623148175,43.555194540897382],[-80.231698936971952,43.555753100548756],[-80.230219224351572,43.556256381070561],[-80.229974263632627,43.556337250157888],[-80.232240407481967,43.557962763364287],[-80.232987292297636,43.558451480576167],[-80.235887055719985,43.560506028169421],[-80.236566685155722,43.561002944201526],[-80.238891876199574,43.562662387145728],[-80.240453777611208,43.56378120043798],[-80.242062375887926,43.564894287032722],[-80.243015963931498,43.565611087169636],[-80.24369104847996,43.56610766117273],[-80.24426536177937,43.566502764425714],[-80.245755279243383,43.5675212429665],[-80.246666249676309,43.568156547059807],[-80.24771686956548,43.568915673147039],[-80.24797917719242,43.567158520174495],[-80.248247078091268,43.565258396086314],[-80.248369135019217,43.564531285269005],[-80.248685359890189,43.562269071108105],[-80.249043200706112,43.559839183712199],[-80.249243459346062,43.558449812348236],[-80.249418730039906,43.557026289097521],[-80.249578301698676,43.555888108890329],[-80.249645895196807,43.555478802308208],[-80.249705906239114,43.55475654000859],[-80.249887857728865,43.553398919114954],[-80.249944306251933,43.553073970329308],[-80.250070880410789,43.552396999427778],[-80.250215250328537,43.551035598586516],[-80.250354404730288,43.550276312359486],[-80.250395174146874,43.549731886050992],[-80.250419695867265,43.549474749588398],[-80.250497313719919,43.549224337068672],[-80.250541938086883,43.54889783354561],[-80.250565849569298,43.54880366335464],[-80.250135088014517,43.548672173543579],[-80.249813922480428,43.548616037886966],[-80.248577867121753,43.548463860805633],[-80.248058325756332,43.548433434171059],[-80.247734640254123,43.548386676467686],[-80.247734199055145,43.548386616838293],[-80.247601126980697,43.548367384327044],[-80.247032059123882,43.548336624379303],[-80.24631578181544,43.548196836520596],[-80.245304038139125,43.547929059850418],[-80.244441948724983,43.547572183662467],[-80.244159041254036,43.547426260193518],[-80.243998243985686,43.547416182031014],[-80.243775265715144,43.547328944280622],[-80.243583601562563,43.547253928465487],[-80.243331963633864,43.547496587386682]]]},"properties":{"AREA_NAME":"St. Georges Parkway","CSDNAME":"Guelph"}},{"type":"Feature","geometry":{"type":"Polygon","coordinates":[[[-80.208145776148513,43.507888113433324],[-80.206696135225855,43.509003596480539],[-80.205995021005535,43.509638013682427],[-80.205944245074619,43.509736730207308],[-80.205458262097522,43.510003471301616],[-80.205345764116174,43.510092734563706],[-80.205131894249519,43.510361365186768],[-80.204801988257415,43.510989380467528],[-80.204563077553289,43.511284845829557],[-80.204450541267221,43.511374104319863],[-80.203710724412815,43.512125326297003],[-80.203471675340282,43.51242980789187],[-80.203393905316034,43.512699378725316],[-80.199421041022362,43.513703425341951],[-80.20300840956746,43.516306211660734],[-80.203574583947983,43.516735834589355],[-80.206048676496536,43.518541924535334],[-80.207130925044751,43.519318418206815],[-80.207340459671215,43.519462390868362],[-80.207760076573308,43.51968913620825],[-80.210471423352672,43.521054495942074],[-80.212600924709861,43.522058782501773],[-80.214252099684643,43.520780965195037],[-80.214556254392903,43.520519087250356],[-80.214741503479402,43.5202888476054],[-80.214882704530694,43.52001066652754],[-80.21492291899925,43.519887422707221],[-80.21491862616611,43.519588018930953],[-80.214887165974744,43.519246572439549],[-80.214847163689043,43.518871056492713],[-80.214841159249048,43.518815024272882],[-80.214904360124862,43.518490323726411],[-80.215001223579009,43.518251437642959],[-80.215430871469437,43.517828898245],[-80.216836178352267,43.516729640514882],[-80.218234078586875,43.515713077921227],[-80.220599463996052,43.513961508579179],[-80.223614729461175,43.511712163323935],[-80.223523741537875,43.511685308883429],[-80.223352036471624,43.511567097450907],[-80.223243264387307,43.511368259861634],[-80.223220227869589,43.511233054165139],[-80.223215374610191,43.510647727560112],[-80.223191790739861,43.510557536626344],[-80.223155393351448,43.510503256681112],[-80.223044843045713,43.510439470404876],[-80.222699269423103,43.510374100869093],[-80.222576866111808,43.510274217491663],[-80.222578809551578,43.5101211730084],[-80.222642520456645,43.509977523920959],[-80.223005529146533,43.509646847077789],[-80.22301881736135,43.509574894437435],[-80.222983780681815,43.509412580868187],[-80.223009691106782,43.509322706420257],[-80.223147976170495,43.509152565470195],[-80.223186355665419,43.509053781360166],[-80.223200450200181,43.508918834179205],[-80.223164833619876,43.50880153162273],[-80.223029931181159,43.508710554518082],[-80.222586682967204,43.508545468748615],[-80.22225718042381,43.508192057813176],[-80.222234301266653,43.508047841468859],[-80.222260994192879,43.507894944579171],[-80.222236712828334,43.507858781336822],[-80.222150830879158,43.507804161718077],[-80.22201522679363,43.507767235615823],[-80.221904023541114,43.507757453932101],[-80.221656278545836,43.507782782195427],[-80.221520560501702,43.507754846369934],[-80.221165507087349,43.507464306003023],[-80.221117541521011,43.507346920463633],[-80.221256729906003,43.507104744925087],[-80.221247962020243,43.506825558973176],[-80.221001039710004,43.506787866203325],[-80.220779180042271,43.506723312962222],[-80.220644167322561,43.506641350017553],[-80.220459552979079,43.506568061989348],[-80.220175032482359,43.506566126269874],[-80.219891337531408,43.506501146838303],[-80.21973193512261,43.506392010863578],[-80.219634605769556,43.506265290751159],[-80.219512066221114,43.50617441815443],[-80.219339808157343,43.506101212661285],[-80.219142494311583,43.506054838629169],[-80.218858212268202,43.506034890066438],[-80.218523777590832,43.506068628003753],[-80.218152917692279,43.506048080496605],[-80.21784565817164,43.505892904075154],[-80.217663601519931,43.505621536471793],[-80.217602115444194,43.505594109297625],[-80.217478643923883,43.505575243212434],[-80.216921452217576,43.505616451426462],[-80.216526914749295,43.505514699145088],[-80.216328865334575,43.505522341603282],[-80.216179973451133,43.505557356880551],[-80.215743777238131,43.505806480160942],[-80.215521018743189,43.505813952630014],[-80.215361513327167,43.505713802391249],[-80.215313761245213,43.505578425369222],[-80.215190879831667,43.505514546827818],[-80.214992984183553,43.505513174774983],[-80.214607883110659,43.50563659585886],[-80.214296211882925,43.505823556304037],[-80.214146024982739,43.505957578834916],[-80.213675525132572,43.505990351990455],[-80.213414801581905,43.506060600682368],[-80.213227752263833,43.506176357198783],[-80.213039040997742,43.506418173121006],[-80.212852097728259,43.506524961515083],[-80.212863067230955,43.506633077181],[-80.212823517193897,43.506821903957409],[-80.212698062691686,43.506956097535294],[-80.212573993465227,43.506982258574276],[-80.212301859844914,43.506980386765711],[-80.212090299160309,43.507077958635129],[-80.211891800277428,43.507121612685175],[-80.211583127989186,43.507074465173908],[-80.211570419165412,43.507101382168457],[-80.211211106920132,43.507143936793362],[-80.210615009255008,43.507319901393601],[-80.210342990266483,43.507309030472122],[-80.210046704083865,43.507261967960048],[-80.209490202470789,43.50724910392006],[-80.209216872560248,43.50733726524286],[-80.208941909392152,43.507551466823621],[-80.208444536072932,43.507746097176074],[-80.208145776148513,43.507888113433324]]]},"properties":{"AREA_NAME":"Rickson Ridge","CSDNAME":"Guelph"}},{"type":"Feature","geometry":{"type":"Polygon","coordinates":[[[-80.244441948724983,43.547572183662467],[-80.245304038139125,43.547929059850418],[-80.24631578181544,43.548196836520596],[-80.247032059123882,43.548336624379303],[-80.247601126980697,43.548367384327044],[-80.247734199055145,43.548386616838293],[-80.24767002988628,43.547973275263168],[-80.247880095404,43.547438737251518],[-80.248532768774695,43.547556773563308],[-80.249011934856838,43.546358591510575],[-80.249080585615104,43.546224472140736],[-80.249382151789192,43.546124502536649],[-80.249191713016018,43.545920586678093],[-80.251473281400223,43.545522833039414],[-80.252167045087447,43.545391018170612],[-80.252553114822604,43.545390125748241],[-80.252934731802014,43.545358673318866],[-80.253296746394255,43.545212328680819],[-80.25435011259259,43.54464365119442],[-80.256305897634192,43.543638914531265],[-80.255674820694949,43.542951321879883],[-80.257617534579907,43.541963808604883],[-80.258975508613716,43.541264694933425],[-80.258567284495101,43.540826403616208],[-80.258921233016267,43.540650509868932],[-80.259316797823587,43.540365448508645],[-80.260134473608758,43.539801384871794],[-80.260695034346767,43.539396537344956],[-80.261111245094412,43.539678468041238],[-80.262063499752358,43.540396583953758],[-80.262337245303144,43.540588855043872],[-80.262628211686049,43.539838102511844],[-80.262745242099982,43.539664748430283],[-80.263856041538006,43.538876122858483],[-80.263977111356965,43.538938020153758],[-80.264059984876397,43.538931431316662],[-80.265514406379054,43.537908902576902],[-80.266227275379379,43.538404840257279],[-80.266909055792055,43.537877237497646],[-80.267890130654365,43.537184217898101],[-80.268564155945612,43.536701449543763],[-80.268669076997128,43.536618226752438],[-80.26920575835743,43.536233619503321],[-80.269422346450426,43.536064763891453],[-80.270584035826204,43.535214942003265],[-80.27133026068303,43.534681884432409],[-80.271528629314162,43.534520508208495],[-80.272151176318616,43.534063816885151],[-80.272351193044855,43.533972322375597],[-80.272612345101223,43.533861007431881],[-80.273418481482508,43.533687946309662],[-80.273800201493785,43.533553807368442],[-80.274252076799328,43.533301928627161],[-80.274389139048552,43.533200712439225],[-80.273963708200938,43.532900474649743],[-80.273634652034872,43.532655768782149],[-80.27354488836221,43.532592981157514],[-80.271939061375733,43.531469770168989],[-80.271738429805538,43.531332020004882],[-80.268636433138496,43.529147278759147],[-80.267824873105681,43.528575638131059],[-80.267042212981238,43.528086786174875],[-80.266786308115357,43.527957605981861],[-80.266207972358941,43.527665639975112],[-80.264419084731614,43.527091789831218],[-80.263976715306399,43.527016494039422],[-80.263039555732121,43.526915121367182],[-80.261675856643777,43.526817945798378],[-80.261034393379575,43.526755430854429],[-80.260818985112948,43.526727582198177],[-80.260474665991566,43.527174456345413],[-80.260360101171457,43.527434830406413],[-80.260195842364254,43.527712899338106],[-80.259907164142604,43.528044179898906],[-80.25947086573531,43.528302488835536],[-80.259396164916865,43.52833803084615],[-80.259220856100555,43.52850795903769],[-80.258981778552041,43.528830563359826],[-80.258782031518976,43.528973351333789],[-80.258445719487227,43.529151259334931],[-80.258057569419577,43.529517892367991],[-80.257820154870771,43.5297054552709],[-80.256678460304073,43.530967611747116],[-80.256302924368654,43.531316341990212],[-80.256040047854199,43.531557745466912],[-80.25569112565357,43.531753577038515],[-80.255566727134607,43.531806786988412],[-80.25551710822721,43.531815457304987],[-80.254405404717986,43.53264562339249],[-80.253819690041936,43.532974948083364],[-80.252823304667373,43.533558350678369],[-80.252610526193209,43.533678380774667],[-80.2509912613925,43.534514185834958],[-80.250716978901806,43.534674460727722],[-80.248861423892151,43.535598734076274],[-80.248138924923893,43.535972147227199],[-80.24784078927587,43.536060235474558],[-80.247753040982346,43.536149699298704],[-80.247678469113055,43.536176220332024],[-80.246737551812245,43.536197028585057],[-80.246563390404148,43.536267911919602],[-80.246151731368215,43.53652633194249],[-80.246051283634955,43.536642719722266],[-80.245942848664896,43.536659889644717],[-80.24550562643627,43.53672917381752],[-80.245082496281839,43.53691546353479],[-80.243799331486258,43.537582308665399],[-80.242766693794024,43.538007652148949],[-80.241709113432961,43.538628274093064],[-80.241062815244803,43.538662665928776],[-80.240876266072618,43.538733481736863],[-80.240813485919389,43.538805093963326],[-80.240712310515022,43.538975482949986],[-80.24049930954186,43.539181185440874],[-80.240445226851975,43.53921428395212],[-80.241495459984918,43.539845575999877],[-80.241505724547039,43.539863160864371],[-80.241677876892581,43.539954368230347],[-80.241898286850486,43.540144901886642],[-80.242610339364518,43.540532091566128],[-80.242635929785834,43.540545969079552],[-80.242745723410849,43.54067276049917],[-80.243015881178366,43.540845633790752],[-80.243260575582212,43.541072348670141],[-80.243357816378975,43.541217074700448],[-80.243392210990052,43.541433407515356],[-80.243361619590573,43.54190140428932],[-80.243259913463632,43.542116846215507],[-80.243058265781812,43.542403653646147],[-80.243044861474132,43.542484585533828],[-80.243019237507326,43.542696194507727],[-80.243003470314704,43.54282647082767],[-80.243013472775061,43.543015638613419],[-80.24289656220364,43.543456060896126],[-80.242782234464656,43.543689405526564],[-80.242630323857199,43.544032002841291],[-80.242400087319595,43.544551282498539],[-80.242360617585263,43.544594642644689],[-80.242262032591142,43.544703450530363],[-80.242234911703918,43.544892353362826],[-80.242267731615414,43.54523472468653],[-80.242439240274123,43.545379919286717],[-80.243150811651944,43.546879329081783],[-80.243277413089459,43.547089865613906],[-80.243308464782416,43.547141507552126],[-80.243530146690645,43.547233013725325],[-80.243583601562563,43.547253928465487],[-80.243775265715144,43.547328944280622],[-80.243998243985686,43.547416182031014],[-80.244159041254036,43.547426260193518],[-80.244441948724983,43.547572183662467]]]},"properties":{"AREA_NAME":"Downtown - Sunny Acres","CSDNAME":"Guelph"}},{"type":"Feature","geometry":{"type":"Polygon","coordinates":[[[-80.17761793424539,43.508810916035543],[-80.175439332060009,43.510430217033829],[-80.173910512368579,43.511543021260074],[-80.172641422594722,43.512512394998282],[-80.171127511099485,43.513622553726989],[-80.17403356991106,43.515741579869633],[-80.179869606284683,43.519996265106087],[-80.180209630150046,43.520244120023165],[-80.183758858738045,43.522831036869306],[-80.184059831158805,43.523050396624534],[-80.185564932255829,43.524040610323006],[-80.188480778016327,43.521905066263933],[-80.188766499542098,43.521688490399924],[-80.190766834263158,43.520199763506724],[-80.192580528373071,43.518878384591993],[-80.195933914896173,43.516401917954354],[-80.197111811347114,43.515479461755255],[-80.199421041022362,43.513703425341951],[-80.197769919354329,43.512482377199348],[-80.197369552256035,43.512144360327021],[-80.196953545216374,43.511674618168982],[-80.196641025455165,43.511212955417278],[-80.196325624127027,43.510635964156791],[-80.195994247776483,43.509907682071493],[-80.195579134399125,43.508628340094539],[-80.194304098250626,43.505348163021388],[-80.19395642100676,43.504756143260693],[-80.193500498279363,43.504053013643187],[-80.193126949737831,43.503570084304158],[-80.192498859956856,43.502962196160141],[-80.191650175871331,43.502257531486045],[-80.188997392901427,43.500352396360505],[-80.187120742964893,43.501738250120852],[-80.188359795686921,43.502579076770616],[-80.1884936374707,43.502738515995084],[-80.187723619866986,43.503288526520976],[-80.187043621480186,43.503848532710585],[-80.186413634506351,43.504448523763728],[-80.185603629477029,43.505178518258788],[-80.184973633684152,43.505778533568744],[-80.186083640073136,43.506568521443299],[-80.185766692031137,43.506842776923058],[-80.185568628003125,43.507046414442435],[-80.185462785448934,43.507079366931436],[-80.185330876477721,43.507055638278786],[-80.185296884123659,43.507031801351928],[-80.184293627315512,43.506328530151713],[-80.183610699768096,43.506795397117216],[-80.183313750499906,43.506499308605093],[-80.182863293817007,43.506101642162569],[-80.182042165998723,43.505476202215817],[-80.181492659421366,43.505893774541441],[-80.17761793424539,43.508810916035543]]]},"properties":{"AREA_NAME":"Pine Ridge - Westminster Woods","CSDNAME":"Guelph"}},{"type":"Feature","geometry":{"type":"Polygon","coordinates":[[[-80.237925985505868,43.505054788033668],[-80.237003059954375,43.505311138231626],[-80.236004317566994,43.505548650726475],[-80.235316445945855,43.505843208570688],[-80.235063714385618,43.505986368469515],[-80.234631802601953,43.506313896171193],[-80.235191487610606,43.506725351937099],[-80.236304055297637,43.507486840395892],[-80.238157595470398,43.508837390959087],[-80.239181467223588,43.509706902666522],[-80.240144775467655,43.510777327576129],[-80.241103202682737,43.511923736405606],[-80.241819489675137,43.512724303091332],[-80.242468868325162,43.513476698540821],[-80.243054952148654,43.514058293908519],[-80.24357828224683,43.514507641833745],[-80.244623767869399,43.515292876480586],[-80.246448576825628,43.516617931757317],[-80.250081633117816,43.519283598468654],[-80.250710632916082,43.518765776830868],[-80.252044169062117,43.517845559820735],[-80.253049976108315,43.517122497000159],[-80.255318268342023,43.515489495768954],[-80.255665447165441,43.515232635253795],[-80.255955491869045,43.514961182385271],[-80.259648147300382,43.512612388257445],[-80.25991018247403,43.512445708989553],[-80.259851101599494,43.512385469042854],[-80.2596317450501,43.512113927854109],[-80.259437868179248,43.511779519768915],[-80.259193415415623,43.511534816184529],[-80.258825933356903,43.511235288236733],[-80.258373620506376,43.510791154473111],[-80.258116495710027,43.510573370984154],[-80.257968692144772,43.510518384569394],[-80.25772395252919,43.510300706680233],[-80.257565328191944,43.510119601762135],[-80.257295274419818,43.509946744674814],[-80.257110154536605,43.50990952683177],[-80.257011873536513,43.509854862736958],[-80.256604861544943,43.508744704680637],[-80.256020603055674,43.507966530974052],[-80.255861886805405,43.507794416473409],[-80.255632168800261,43.507360733398791],[-80.255533408503879,43.507271226550174],[-80.255493075859334,43.507234679502766],[-80.255301840335861,43.507061435816148],[-80.254984968608824,43.506672196853131],[-80.254863946538123,43.506455291782459],[-80.254852691583636,43.506365193031009],[-80.254833337124822,43.505120976408271],[-80.254831963607685,43.505032412428939],[-80.254637272853969,43.504770014649161],[-80.25431204992941,43.504495740477466],[-80.254219643466641,43.504563080273343],[-80.253955221454277,43.504233318545559],[-80.253898623818955,43.503792588057934],[-80.254083863678218,43.503106488362825],[-80.253968235505084,43.502476602959597],[-80.253956968687291,43.502427608415786],[-80.253950244295197,43.50239386700747],[-80.253943940223607,43.502370493141619],[-80.253796666376672,43.50239644579743],[-80.249564104575683,43.503135219776368],[-80.246146184027467,43.503723045682598],[-80.244872529791451,43.503970902962642],[-80.242941276568288,43.504260972737647],[-80.240709613959282,43.50466038346746],[-80.239886683029297,43.504794347269915],[-80.239576581023385,43.504863841157643],[-80.239390690071289,43.504873783464568],[-80.239106008877073,43.504825933394983],[-80.238632232500549,43.504592528155293],[-80.238415150542551,43.504761567995246],[-80.237925985505868,43.505054788033668]]]},"properties":{"AREA_NAME":"Dover Cliff","CSDNAME":"Guelph"}},{"type":"Feature","geometry":{"type":"Polygon","coordinates":[[[-80.246341783876957,43.578600808885632],[-80.252620339111601,43.582967277928283],[-80.255004912999539,43.584712421423021],[-80.255609681032197,43.585101675502621],[-80.255621355596261,43.58510921504211],[-80.267520596820816,43.594257089644231],[-80.267446551441822,43.594897165243502],[-80.268152582150236,43.594496722696391],[-80.268880593689033,43.594077831836898],[-80.269902118562442,43.593272225007802],[-80.270849842765642,43.592547128478124],[-80.27181256313817,43.591552877406038],[-80.272447306159691,43.591431357220785],[-80.272845189093943,43.591123175419447],[-80.273039629320152,43.590916833715774],[-80.273349927182451,43.589693164425412],[-80.273577890952367,43.588794150358794],[-80.274021125805888,43.588032096981941],[-80.273779603454628,43.587862095771079],[-80.267791434502442,43.583507075718202],[-80.265853149980458,43.582094078992775],[-80.264817061734931,43.581347307007718],[-80.263198598980054,43.580160814955768],[-80.262861068379209,43.579931707812193],[-80.262058687507505,43.579345234076868],[-80.261314059928367,43.578765325393412],[-80.260948649233796,43.5784903832228],[-80.261632622661097,43.577991917089285],[-80.261800828460807,43.577937656695624],[-80.261931524265748,43.577967003152352],[-80.262186096351201,43.578148873265697],[-80.262305461188205,43.578158962845173],[-80.262455636354304,43.578143654105425],[-80.263054000395996,43.577739387570567],[-80.2630929181054,43.57765007154353],[-80.263098434144084,43.577612424768503],[-80.263103928520678,43.577574725629283],[-80.262957880725935,43.577447050857849],[-80.26294429564831,43.577435147138743],[-80.262938099925037,43.577363414418706],[-80.262975571997572,43.577279801332899],[-80.263558737912732,43.576835750149087],[-80.263161515542905,43.576571227718851],[-80.263001901822278,43.576503394420442],[-80.262504302968338,43.576318486391493],[-80.26216051902901,43.576100174991133],[-80.261212697666465,43.576782302581123],[-80.259879593312107,43.577759565832274],[-80.256007400815051,43.574929142595444],[-80.255269371988447,43.574407844197331],[-80.254769384780928,43.574043524318995],[-80.251511829133008,43.571719480126013],[-80.251214205020148,43.571495806686762],[-80.25003809278914,43.572326552054186],[-80.249878290644958,43.572433829840634],[-80.248290303075834,43.573620276476063],[-80.246847822109714,43.574633861459816],[-80.246601918924341,43.576659551786356],[-80.246528951762897,43.577242613034315],[-80.246341783876957,43.578600808885632]]]},"properties":{"AREA_NAME":"Brant","CSDNAME":"Guelph"}},{"type":"Feature","geometry":{"type":"Polygon","coordinates":[[[-80.153845268988889,43.500197304134574],[-80.153559480320908,43.500413203221804],[-80.153512080161349,43.500448554145855],[-80.153397843618762,43.500537394244411],[-80.153419279382049,43.500554873536593],[-80.154094582626897,43.501104636835564],[-80.156322686826144,43.502744676068211],[-80.162749937109922,43.507474645802702],[-80.163287427845816,43.507869172653045],[-80.16783665648731,43.511207822784598],[-80.171127511099485,43.513622553726989],[-80.172641422594722,43.512512394998282],[-80.173910512368579,43.511543021260074],[-80.175439332060009,43.510430217033829],[-80.17761793424539,43.508810916035543],[-80.181492659421366,43.505893774541441],[-80.182042165998723,43.505476202215817],[-80.182863293817007,43.506101642162569],[-80.183313750499906,43.506499308605093],[-80.183610699768096,43.506795397117216],[-80.184293627315512,43.506328530151713],[-80.185296884123659,43.507031801351928],[-80.185330876477721,43.507055638278786],[-80.185462785448934,43.507079366931436],[-80.185568628003125,43.507046414442435],[-80.185766692031137,43.506842776923058],[-80.186083640073136,43.506568521443299],[-80.184973633684152,43.505778533568744],[-80.185603629477029,43.505178518258788],[-80.186413634506351,43.504448523763728],[-80.187043621480186,43.503848532710585],[-80.187723619866986,43.503288526520976],[-80.1884936374707,43.502738515995084],[-80.188359795686921,43.502579076770616],[-80.187120742964893,43.501738250120852],[-80.188997392901427,43.500352396360505],[-80.188622411150533,43.500074776669621],[-80.187935436668752,43.499566195292601],[-80.187821355056997,43.499482562950035],[-80.171166451908903,43.48726738954295],[-80.171130119517116,43.487294521658704],[-80.164232529852796,43.492444852645249],[-80.161440430776778,43.494529212582854],[-80.154600402493912,43.499634383433495],[-80.153988320140499,43.50009312826004],[-80.15396966554637,43.500106702796373],[-80.153845268988889,43.500197304134574]]]},"properties":{"AREA_NAME":"Non-Residential - C","CSDNAME":"Guelph"}},{"type":"Feature","geometry":{"type":"Polygon","coordinates":[[[-80.207130233579818,43.539906297228413],[-80.209009066539821,43.541201208725262],[-80.20997014090193,43.5419141724458],[-80.214738429451785,43.5453293327922],[-80.218938374622283,43.548404914533243],[-80.220329974120546,43.54940421492271],[-80.220415733567194,43.54936479686755],[-80.221275852326883,43.548902436785809],[-80.221985145183297,43.548619137433327],[-80.222345270660611,43.548531552061746],[-80.222743689249583,43.548354180473069],[-80.223243448263446,43.547997406998505],[-80.223406191403157,43.54785442674666],[-80.223532065117951,43.547693208204883],[-80.223911268388974,43.54708351468355],[-80.224162860438341,43.546770068622251],[-80.22429054745362,43.546464798155029],[-80.22439119128903,43.546339410674086],[-80.224515665283121,43.546286242540802],[-80.224603712073318,43.546178784096512],[-80.224655055887311,43.546035069837252],[-80.224819205590606,43.545784067531002],[-80.224918802569661,43.545739722756387],[-80.225426751838867,43.54570714940543],[-80.22576173932633,43.545646388253928],[-80.226879536666829,43.545356809033983],[-80.226991613170711,43.545303525542792],[-80.227179357230085,43.545142723912782],[-80.227318151632389,43.544936568414172],[-80.227581067063596,43.544704244225542],[-80.227733719552333,43.544381128276648],[-80.227886179124681,43.544076003873641],[-80.227939927450507,43.54374322533625],[-80.228605099779799,43.543027377368603],[-80.228842238481192,43.542875904988939],[-80.229205644417235,43.542527183142418],[-80.229667362588017,43.542233163037729],[-80.230115218602037,43.542056099510305],[-80.23021449163555,43.542038758682182],[-80.23068790979319,43.541798831157429],[-80.230913553717414,43.541575246245252],[-80.230926608816688,43.541521291795569],[-80.230877653746745,43.541475963112241],[-80.230868506811277,43.541223765236381],[-80.230969346932682,43.541080386375512],[-80.231205860483072,43.540973922198262],[-80.231379259791652,43.540966097386814],[-80.231765101421232,43.540797603803099],[-80.232326404386228,43.540459199381971],[-80.2329469457964,43.540328306854221],[-80.233107604426337,43.540347397521877],[-80.233255559151885,43.540393412652165],[-80.233394623372675,43.540402783930617],[-80.233529207527184,43.540583480250859],[-80.233922773146475,43.54071791788148],[-80.234425007901606,43.540785490990736],[-80.234935388065495,43.540724565305005],[-80.235020964997972,43.540756391497681],[-80.235169262367933,43.540775398358299],[-80.236580326597462,43.540775834109738],[-80.237076417268511,43.540698096160533],[-80.237385944983117,43.540691165144942],[-80.237522870338964,43.540629042728881],[-80.237708519021581,43.54063027799554],[-80.238217451860635,43.540516620138526],[-80.238267537554577,43.540471933771698],[-80.238662996056235,43.540519583460991],[-80.238921450218228,43.540638378618674],[-80.239057357448317,43.540657268241816],[-80.239143547292414,43.540693868553831],[-80.239279786537338,43.540685777247987],[-80.239329871594947,43.540641090412286],[-80.239342916501812,43.540587135819614],[-80.239346561939158,43.540299051001476],[-80.239486424631878,43.540002821343634],[-80.239538768509803,43.539778067291394],[-80.239664563774198,43.539616832896023],[-80.240013724224724,43.539412063271584],[-80.240324712501007,43.539288058714966],[-80.240445226851975,43.53921428395212],[-80.24049930954186,43.539181185440874],[-80.240712310515022,43.538975482949986],[-80.240813485919389,43.538805093963326],[-80.240876266072618,43.538733481736863],[-80.241062815244803,43.538662665928776],[-80.241709113432961,43.538628274093064],[-80.241048032061016,43.538142229499364],[-80.240420257110003,43.537687223714073],[-80.240344778990021,43.537632516941038],[-80.239110950085163,43.536813450545552],[-80.238556867989587,43.53641478423306],[-80.238337757191573,43.536234445441963],[-80.237285619485732,43.535448665849785],[-80.236265380390179,43.534694011818267],[-80.234860748796891,43.533740481459425],[-80.234257402624237,43.533316348100115],[-80.232499999882762,43.532131006158174],[-80.234590553402512,43.53061960780677],[-80.236325412721115,43.529334479058875],[-80.236397084168843,43.529283618442534],[-80.237483875764994,43.52851224410896],[-80.237934557643001,43.528175019311583],[-80.239593166771115,43.526933857016786],[-80.241598115212483,43.525459158540826],[-80.237887702366137,43.522816385155835],[-80.236705453034546,43.521966942958322],[-80.233810657356273,43.519904688073296],[-80.229261837541088,43.523282913676944],[-80.227087683487454,43.524912204603872],[-80.224982994784142,43.526509745271063],[-80.224767933882944,43.526647750843289],[-80.223023263370436,43.527934224530739],[-80.221397017003568,43.529155310338624],[-80.219731345608167,43.530442322408049],[-80.218986049276339,43.530995949260188],[-80.217646850460468,43.531953734261215],[-80.216086491821088,43.533156917621497],[-80.215450846668347,43.533591302679412],[-80.21469464514837,43.534221895136362],[-80.211439855908878,43.536623304463134],[-80.20749411289799,43.539588850724101],[-80.207130233579818,43.539906297228413]]]},"properties":{"AREA_NAME":"University","CSDNAME":"Guelph"}},{"type":"Feature","geometry":{"type":"Polygon","coordinates":[[[-80.197111811347114,43.515479461755255],[-80.195933914896173,43.516401917954354],[-80.192580528373071,43.518878384591993],[-80.190766834263158,43.520199763506724],[-80.188766499542098,43.521688490399924],[-80.188480778016327,43.521905066263933],[-80.185564932255829,43.524040610323006],[-80.189312060721605,43.526803800372754],[-80.195264136656547,43.531162312032066],[-80.197165195479286,43.532571562192359],[-80.198379787980485,43.533453088152456],[-80.198601847444579,43.533622130271965],[-80.198715935217876,43.533699265744204],[-80.198879532056239,43.533822311992012],[-80.199669483760431,43.534420785632349],[-80.199981917080294,43.534644590905117],[-80.201162487486542,43.535520434748932],[-80.203382506112064,43.537153393153609],[-80.207130233579818,43.539906297228413],[-80.20749411289799,43.539588850724101],[-80.211439855908878,43.536623304463134],[-80.21469464514837,43.534221895136362],[-80.215450846668347,43.533591302679412],[-80.216086491821088,43.533156917621497],[-80.217646850460468,43.531953734261215],[-80.218986049276339,43.530995949260188],[-80.219731345608167,43.530442322408049],[-80.221397017003568,43.529155310338624],[-80.223023263370436,43.527934224530739],[-80.224767933882944,43.526647750843289],[-80.223958179048751,43.526337518681096],[-80.221334071530549,43.525590312971829],[-80.220389472459246,43.525305693189623],[-80.218253313337755,43.524711049951279],[-80.218238675203693,43.524705044895192],[-80.217524287682721,43.524411145017609],[-80.21647368404507,43.523973008934469],[-80.212600924709861,43.522058782501773],[-80.210471423352672,43.521054495942074],[-80.207760076573308,43.51968913620825],[-80.207340459671215,43.519462390868362],[-80.207130925044751,43.519318418206815],[-80.206048676496536,43.518541924535334],[-80.203574583947983,43.516735834589355],[-80.20300840956746,43.516306211660734],[-80.199421041022362,43.513703425341951],[-80.197111811347114,43.515479461755255]]]},"properties":{"AREA_NAME":"Hales Barton","CSDNAME":"Guelph"}},{"type":"Feature","geometry":{"type":"Polygon","coordinates":[[[-80.273585600294112,43.567903525967395],[-80.272051457824745,43.56902235773434],[-80.27181562356472,43.569194326293413],[-80.271836197040273,43.569224901282482],[-80.272077780737561,43.569730667004677],[-80.272136648265445,43.569983174332819],[-80.272137853048662,43.57091061068509],[-80.272149164261521,43.5710007107173],[-80.272269535959538,43.571289611677841],[-80.272256063710643,43.571379577342285],[-80.272193396947387,43.571442204772119],[-80.272154724726747,43.571568021195191],[-80.272396858501764,43.57202876609373],[-80.272583798113189,43.572306682062134],[-80.272603689487084,43.572336221582333],[-80.272824735208673,43.57249069384693],[-80.272873826259854,43.572527030792557],[-80.273057794130565,43.572663135115583],[-80.273057972183295,43.572663261405431],[-80.273291284038905,43.572826828411841],[-80.273695979724465,43.573013310836423],[-80.27650800347763,43.570700472414565],[-80.276154686593486,43.56889530973119],[-80.276296456500404,43.568807194873898],[-80.278506258197538,43.567402906488894],[-80.278716160567214,43.567987260119182],[-80.278894724750884,43.568644767108225],[-80.279187808028496,43.568487187763346],[-80.279611450264113,43.568733879683158],[-80.28898301160109,43.562425850800253],[-80.294057578442676,43.563261023477295],[-80.294331912160985,43.563306171221505],[-80.294446249274301,43.563223757639371],[-80.298864654058704,43.560038495531323],[-80.30317272852615,43.556877381959467],[-80.303438324530873,43.556689463427922],[-80.301435593597333,43.55522717756854],[-80.299888107936596,43.554036976310186],[-80.298720839941581,43.553233858913849],[-80.29620219211786,43.551390972003766],[-80.293056469698215,43.553780870719415],[-80.289197967537859,43.556584274001828],[-80.287172289570975,43.558045679549323],[-80.287010763767967,43.55814677154882],[-80.283496882554957,43.555636482474554],[-80.282903212047117,43.55604562164433],[-80.2828109881996,43.556056899847952],[-80.282691708904778,43.556046844812521],[-80.282620381146174,43.556007741435394],[-80.282214076931254,43.555687473444252],[-80.28210987579439,43.555649885850137],[-80.282008362065184,43.555665839469647],[-80.281949481361082,43.555707559700473],[-80.281862369733886,43.555769307946626],[-80.280879689044198,43.5564658016946],[-80.280812931944183,43.556569089165549],[-80.280817279320686,43.556636301169846],[-80.280824491298716,43.55674789026348],[-80.280872495380919,43.556943362225759],[-80.28085609733472,43.557089988413821],[-80.28079869135712,43.557234773698184],[-80.280708737771434,43.557429501128141],[-80.280572488152458,43.557582580989283],[-80.280345249717058,43.557806180423711],[-80.279776888621598,43.558197315477429],[-80.278852026734384,43.557511616251695],[-80.278295706058486,43.557175767974968],[-80.278865006602871,43.556746441426931],[-80.279656972833394,43.556203783969657],[-80.280295899954837,43.555805062784643],[-80.280354633046059,43.555607941187361],[-80.277054886807122,43.553257612212654],[-80.276226049811683,43.552615957981104],[-80.274719771531551,43.553687833218575],[-80.272396060431518,43.555390651182478],[-80.272322079577435,43.555461730214816],[-80.270591516707711,43.556686863002462],[-80.269831173795154,43.557265363769801],[-80.268279609029747,43.558406759667207],[-80.269267196572144,43.559186213988092],[-80.269326293869582,43.559218865350367],[-80.270910135549798,43.560379402768724],[-80.271504167786787,43.560812895476531],[-80.272994571461041,43.561879888919655],[-80.27321880340665,43.562016744476146],[-80.277178144785353,43.564940819521865],[-80.277379839145411,43.565068518398846],[-80.276384212691724,43.565850215643948],[-80.275347221774581,43.566617995206826],[-80.27436499905896,43.567335306914359],[-80.273585600294112,43.567903525967395]]]},"properties":{"AREA_NAME":"June Avenue","CSDNAME":"Guelph"}},{"type":"Feature","geometry":{"type":"Polygon","coordinates":[[[-80.233301588570399,43.584604145946507],[-80.241990611040436,43.578250330705465],[-80.243835070910691,43.576934113500251],[-80.246341783876957,43.578600808885632],[-80.246528951762897,43.577242613034315],[-80.246601918924341,43.576659551786356],[-80.246847822109714,43.574633861459816],[-80.247093566992262,43.573102783736026],[-80.247447757234951,43.570692908958954],[-80.247568995818256,43.569668889609517],[-80.24771686956548,43.568915673147039],[-80.246666249676309,43.568156547059807],[-80.245755279243383,43.5675212429665],[-80.24426536177937,43.566502764425714],[-80.24369104847996,43.56610766117273],[-80.243015963931498,43.565611087169636],[-80.242062375887926,43.564894287032722],[-80.240453777611208,43.56378120043798],[-80.238891876199574,43.562662387145728],[-80.236566685155722,43.561002944201526],[-80.235887055719985,43.560506028169421],[-80.232987292297636,43.558451480576167],[-80.232240407481967,43.557962763364287],[-80.229974263632627,43.556337250157888],[-80.228763774473279,43.555494651618609],[-80.222698317854451,43.555729920525529],[-80.220992623822184,43.557153615923333],[-80.219520777710827,43.558195649513728],[-80.218409502561073,43.557085692729196],[-80.217053794653367,43.557562626995249],[-80.21798339765455,43.558294153591341],[-80.217946415135955,43.558433302214993],[-80.21702602885955,43.558750984102943],[-80.216660144311106,43.558453226606012],[-80.215799679092726,43.557842178280673],[-80.210874904677695,43.561409935097039],[-80.209447789335798,43.562449655309393],[-80.206013617407223,43.565008551081156],[-80.203089903774995,43.562915546182097],[-80.202232167943308,43.562358436625402],[-80.198266472091035,43.559456511046548],[-80.197981992583266,43.559178065404609],[-80.197885699510977,43.559008093574612],[-80.197844317548032,43.558782203921282],[-80.197895535030412,43.558372344387834],[-80.198178046626907,43.557712384993863],[-80.195668196690448,43.557000699074493],[-80.194872328547703,43.556736330771088],[-80.194116094415136,43.556366476070458],[-80.193474854540341,43.555993708031416],[-80.192310252089371,43.555134758070857],[-80.18945342208508,43.55312974666581],[-80.191023454693948,43.551969445017541],[-80.19484320679247,43.549188960231902],[-80.19550838596912,43.548770926438152],[-80.196891480000971,43.547877366633699],[-80.19745075468883,43.547426577469949],[-80.198390393411685,43.546700087019389],[-80.197662800582364,43.546140124726229],[-80.197558062536586,43.546093344947082],[-80.197013981760875,43.54551722886427],[-80.196865681992662,43.545183863453886],[-80.196642777627972,43.54493182526533],[-80.196261757184161,43.544736777367866],[-80.195723218497605,43.544631437297404],[-80.195292754316597,43.544384022946574],[-80.194650717570639,43.543840787971398],[-80.193748364316278,43.544453960111483],[-80.193407254977231,43.544685728591155],[-80.191445006153444,43.546122974833921],[-80.190914422633256,43.546511597288941],[-80.190175857977977,43.547052509517705],[-80.185640395788326,43.550373875498515],[-80.186903016481281,43.551310412035853],[-80.18847176693447,43.552498826048065],[-80.188758495088805,43.552709000528111],[-80.187269469867445,43.553696973917475],[-80.187881738977396,43.554209589507984],[-80.188468453421251,43.554700827275269],[-80.188728896302237,43.554471024566709],[-80.189085673156058,43.554234500466045],[-80.191413353194179,43.556064379709426],[-80.191608624811664,43.555881412926688],[-80.192603412107928,43.556501175357361],[-80.193474695697589,43.557064638132175],[-80.193238217739918,43.557222187567511],[-80.196794475770247,43.559828759322343],[-80.195836529210524,43.560363295836169],[-80.197747921116957,43.561816107119938],[-80.19609214959965,43.562862400601034],[-80.198972761982574,43.564892306377892],[-80.202475596383096,43.567638007326522],[-80.21458887626271,43.576864144166763],[-80.220315031779833,43.580796945275189],[-80.222524273464728,43.582336586846722],[-80.224241767434876,43.58353724950409],[-80.227961732345364,43.580757688550392],[-80.233301588570399,43.584604145946507]]]},"properties":{"AREA_NAME":"Grange Hill East","CSDNAME":"Guelph"}},{"type":"Feature","geometry":{"type":"Polygon","coordinates":[[[-80.22201522679363,43.507767235615823],[-80.222150830879158,43.507804161718077],[-80.222236712828334,43.507858781336822],[-80.222260994192879,43.507894944579171],[-80.222234301266653,43.508047841468859],[-80.22225718042381,43.508192057813176],[-80.222586682967204,43.508545468748615],[-80.223029931181159,43.508710554518082],[-80.223164833619876,43.50880153162273],[-80.223200450200181,43.508918834179205],[-80.223186355665419,43.509053781360166],[-80.223147976170495,43.509152565470195],[-80.223009691106782,43.509322706420257],[-80.222983780681815,43.509412580868187],[-80.22301881736135,43.509574894437435],[-80.223005529146533,43.509646847077789],[-80.222642520456645,43.509977523920959],[-80.222578809551578,43.5101211730084],[-80.222576866111808,43.510274217491663],[-80.222699269423103,43.510374100869093],[-80.223044843045713,43.510439470404876],[-80.223155393351448,43.510503256681112],[-80.223191790739861,43.510557536626344],[-80.223215374610191,43.510647727560112],[-80.223220227869589,43.511233054165139],[-80.223243264387307,43.511368259861634],[-80.223352036471624,43.511567097450907],[-80.223523741537875,43.511685308883429],[-80.223614729461175,43.511712163323935],[-80.220599463996052,43.513961508579179],[-80.218234078586875,43.515713077921227],[-80.216836178352267,43.516729640514882],[-80.215430871469437,43.517828898245],[-80.215001223579009,43.518251437642959],[-80.214904360124862,43.518490323726411],[-80.214841159249048,43.518815024272882],[-80.214847163689043,43.518871056492713],[-80.214887165974744,43.519246572439549],[-80.21491862616611,43.519588018930953],[-80.21492291899925,43.519887422707221],[-80.214882704530694,43.52001066652754],[-80.214741503479402,43.5202888476054],[-80.214556254392903,43.520519087250356],[-80.214252099684643,43.520780965195037],[-80.212600924709861,43.522058782501773],[-80.21647368404507,43.523973008934469],[-80.217524287682721,43.524411145017609],[-80.218238675203693,43.524705044895192],[-80.218253313337755,43.524711049951279],[-80.220389472459246,43.525305693189623],[-80.221334071530549,43.525590312971829],[-80.223958179048751,43.526337518681096],[-80.224767933882944,43.526647750843289],[-80.224982994784142,43.526509745271063],[-80.227087683487454,43.524912204603872],[-80.229261837541088,43.523282913676944],[-80.233810657356273,43.519904688073296],[-80.239546514327927,43.515634640366734],[-80.240948112141751,43.514610173214372],[-80.24175965291181,43.513981386937857],[-80.242468868325162,43.513476698540821],[-80.241819489675137,43.512724303091332],[-80.241103202682737,43.511923736405606],[-80.240144775467655,43.510777327576129],[-80.239181467223588,43.509706902666522],[-80.238157595470398,43.508837390959087],[-80.236304055297637,43.507486840395892],[-80.235191487610606,43.506725351937099],[-80.234631802601953,43.506313896171193],[-80.231051758239758,43.503710111427466],[-80.230487296393818,43.504033774177266],[-80.230433531588616,43.504057739099807],[-80.230188716834704,43.504166816334759],[-80.229791286782998,43.504290193008707],[-80.22964172363568,43.504379232413768],[-80.229567270634931,43.504396736550319],[-80.22909679754423,43.50442959228819],[-80.228763159768036,43.504400323210028],[-80.228664771677501,43.504354640949522],[-80.22861609604405,43.504291286405312],[-80.228592626180216,43.504192083095624],[-80.228346635933576,43.5040823784555],[-80.228001076738678,43.504017002484957],[-80.227444262627259,43.50403125270978],[-80.227321017926897,43.503994417291999],[-80.227161811348964,43.503867259232685],[-80.227051185798899,43.503812501216828],[-80.226865299518167,43.503838261670154],[-80.226604648511511,43.503908530173973],[-80.226468706782114,43.503898610801102],[-80.226210455396924,43.503779796349924],[-80.22607436704088,43.503778864460457],[-80.225727135099717,43.503848564684553],[-80.225542839992116,43.503748259831553],[-80.225282421920355,43.503800514793717],[-80.225169824481384,43.503898812974327],[-80.225106714596023,43.503997427538096],[-80.224857136947605,43.504166805759759],[-80.224755999329915,43.504337202617975],[-80.224594038588606,43.504426145048285],[-80.224321686210018,43.504442318782516],[-80.224025877781727,43.504359261610517],[-80.223926675878673,43.504376615713966],[-80.223814080422216,43.504474889149428],[-80.223750501260668,43.504609519469156],[-80.2237485559437,43.504762584817193],[-80.223635840201382,43.504869875009341],[-80.223498968883064,43.504931959982187],[-80.223386019031764,43.505057258634281],[-80.223359911070446,43.505165145794891],[-80.223271473616776,43.505308597717494],[-80.223171262042229,43.505406958231738],[-80.223034036198456,43.505496069186208],[-80.222909777806294,43.505540256770651],[-80.22279729141728,43.505629537380244],[-80.222806068837002,43.505908722440672],[-80.222692766762975,43.50606102082898],[-80.222281230546443,43.506319340044925],[-80.222082161927474,43.506408025561825],[-80.221510858664786,43.506584236433056],[-80.221336528618195,43.506673090884838],[-80.221247962020243,43.506825558973176],[-80.221256729906003,43.507104744925087],[-80.221117541521011,43.507346920463633],[-80.221165507087349,43.507464306003023],[-80.221520560501702,43.507754846369934],[-80.221656278545836,43.507782782195427],[-80.221904023541114,43.507757453932101],[-80.22201522679363,43.507767235615823]]]},"properties":{"AREA_NAME":"Hanlon Creek","CSDNAME":"Guelph"}},{"type":"Feature","geometry":{"type":"Polygon","coordinates":[[[-80.262745242099982,43.539664748430283],[-80.262628211686049,43.539838102511844],[-80.262337245303144,43.540588855043872],[-80.262658323344255,43.540855508282746],[-80.263059409573117,43.541114320456145],[-80.263683457793306,43.541532910689227],[-80.263948912303078,43.541724726506878],[-80.264533936299301,43.542182320914677],[-80.264646881138418,43.542237283295897],[-80.265460264823943,43.542809236992902],[-80.266023126237855,43.543233274853968],[-80.266119161831938,43.54332243229841],[-80.270286329523131,43.546196672524687],[-80.276206887358072,43.550452559175902],[-80.277710072050809,43.551535809285816],[-80.279945878673786,43.549895694417458],[-80.287005678042078,43.544758816174927],[-80.288223043182953,43.543884859331442],[-80.28881941853453,43.543443973100324],[-80.28134198849898,43.538191623523232],[-80.277583407212845,43.535479826627927],[-80.276201907872178,43.5345135895979],[-80.274389139048552,43.533200712439225],[-80.274252076799328,43.533301928627161],[-80.273800201493785,43.533553807368442],[-80.273418481482508,43.533687946309662],[-80.272612345101223,43.533861007431881],[-80.272351193044855,43.533972322375597],[-80.272151176318616,43.534063816885151],[-80.271528629314162,43.534520508208495],[-80.27133026068303,43.534681884432409],[-80.270584035826204,43.535214942003265],[-80.269422346450426,43.536064763891453],[-80.26920575835743,43.536233619503321],[-80.268669076997128,43.536618226752438],[-80.268564155945612,43.536701449543763],[-80.267890130654365,43.537184217898101],[-80.266909055792055,43.537877237497646],[-80.266227275379379,43.538404840257279],[-80.265514406379054,43.537908902576902],[-80.264059984876397,43.538931431316662],[-80.263977111356965,43.538938020153758],[-80.263856041538006,43.538876122858483],[-80.262745242099982,43.539664748430283]]]},"properties":{"AREA_NAME":"Onward Willow","CSDNAME":"Guelph"}},{"type":"Feature","geometry":{"type":"Polygon","coordinates":[[[-80.234631802601953,43.506313896171193],[-80.235063714385618,43.505986368469515],[-80.235316445945855,43.505843208570688],[-80.236004317566994,43.505548650726475],[-80.237003059954375,43.505311138231626],[-80.237925985505868,43.505054788033668],[-80.238415150542551,43.504761567995246],[-80.238632232500549,43.504592528155293],[-80.239106008877073,43.504825933394983],[-80.239390690071289,43.504873783464568],[-80.239576581023385,43.504863841157643],[-80.239886683029297,43.504794347269915],[-80.240709613959282,43.50466038346746],[-80.242941276568288,43.504260972737647],[-80.244872529791451,43.503970902962642],[-80.246146184027467,43.503723045682598],[-80.249564104575683,43.503135219776368],[-80.253796666376672,43.50239644579743],[-80.253943940223607,43.502370493141619],[-80.253363469490083,43.500214727628332],[-80.253023605946424,43.500262247302729],[-80.249229089182293,43.500792591582425],[-80.249135445759165,43.500009764010144],[-80.24913023208471,43.49996594565507],[-80.248784412275754,43.500010251315487],[-80.247191359320027,43.500214383794599],[-80.247184616954769,43.50021526233845],[-80.247104293229427,43.500012622026127],[-80.246596730201233,43.498732352892738],[-80.244880676233436,43.494403365710525],[-80.233575637086673,43.496317463093831],[-80.230125197114901,43.487271349870731],[-80.226839293418934,43.47826632530149],[-80.212222685595876,43.480811435871665],[-80.2110817034104,43.481028392577542],[-80.210026065453121,43.481229095845876],[-80.208712317697248,43.481496827649266],[-80.203438129653804,43.482572031509974],[-80.203095405199605,43.482722113768084],[-80.201962133165026,43.481888685359188],[-80.201933037798213,43.48186314423122],[-80.201780641599612,43.48172932668998],[-80.201921371405263,43.482323849761308],[-80.201969745940801,43.48252820102158],[-80.202896582104955,43.483193472454808],[-80.206490695438717,43.485802285861283],[-80.20747256741717,43.486500164157675],[-80.207637364859522,43.486623932852297],[-80.212902923285924,43.490485582799643],[-80.223312255667508,43.498079802549327],[-80.226005898196206,43.500039548094755],[-80.231051758239758,43.503710111427466],[-80.234631802601953,43.506313896171193]]]},"properties":{"AREA_NAME":"Kortright Hills","CSDNAME":"Guelph"}},{"type":"Feature","geometry":{"type":"Polygon","coordinates":[[[-80.278295706058486,43.557175767974968],[-80.278852026734384,43.557511616251695],[-80.279776888621598,43.558197315477429],[-80.280345249717058,43.557806180423711],[-80.280572488152458,43.557582580989283],[-80.280708737771434,43.557429501128141],[-80.28079869135712,43.557234773698184],[-80.28085609733472,43.557089988413821],[-80.280872495380919,43.556943362225759],[-80.280824491298716,43.55674789026348],[-80.280817279320686,43.556636301169846],[-80.280812931944183,43.556569089165549],[-80.280879689044198,43.5564658016946],[-80.281862369733886,43.555769307946626],[-80.281949481361082,43.555707559700473],[-80.282008362065184,43.555665839469647],[-80.28210987579439,43.555649885850137],[-80.282214076931254,43.555687473444252],[-80.282620381146174,43.556007741435394],[-80.282691708904778,43.556046844812521],[-80.2828109881996,43.556056899847952],[-80.282903212047117,43.55604562164433],[-80.283496882554957,43.555636482474554],[-80.287010763767967,43.55814677154882],[-80.287172289570975,43.558045679549323],[-80.289197967537859,43.556584274001828],[-80.293056469698215,43.553780870719415],[-80.29620219211786,43.551390972003766],[-80.298720839941581,43.553233858913849],[-80.299888107936596,43.554036976310186],[-80.301435593597333,43.55522717756854],[-80.30382419715194,43.553653331563758],[-80.305550439369156,43.55251583634562],[-80.308400037216586,43.550291631044743],[-80.309140379472524,43.549730889914677],[-80.309233652045918,43.549660223159677],[-80.309579565225249,43.549398221544244],[-80.310771374923419,43.548495424754101],[-80.310882136770999,43.5484156390755],[-80.315867389256653,43.545081253595249],[-80.319766402526014,43.54247289420185],[-80.318391122293633,43.541478745934455],[-80.317734531697809,43.541004091668761],[-80.318112940572306,43.540732925738226],[-80.32214336322474,43.53783951816559],[-80.325412263660368,43.535499760783672],[-80.32694929017066,43.534379097521274],[-80.32637226116303,43.534009305977705],[-80.323221932037853,43.531904299066078],[-80.318774608844762,43.528968971957404],[-80.313476582383359,43.525562124102493],[-80.308532804733503,43.529118251503128],[-80.30502319601031,43.531706306391413],[-80.301208609352315,43.534470789016922],[-80.297217618180994,43.537330551276519],[-80.293885907794774,43.539752551349288],[-80.292222666665324,43.540948572477483],[-80.289771445588755,43.542747796973032],[-80.28881941853453,43.543443973100324],[-80.288223043182953,43.543884859331442],[-80.287005678042078,43.544758816174927],[-80.279945878673786,43.549895694417458],[-80.277710072050809,43.551535809285816],[-80.276226049811683,43.552615957981104],[-80.277054886807122,43.553257612212654],[-80.280354633046059,43.555607941187361],[-80.280295899954837,43.555805062784643],[-80.279656972833394,43.556203783969657],[-80.278865006602871,43.556746441426931],[-80.278295706058486,43.557175767974968]]]},"properties":{"AREA_NAME":"Non-Residential - A","CSDNAME":"Guelph"}}]}